NORAD_CAT_ID,OBJECT_NAME,OBJECT_TYPE,EPOCH,MEAN_MOTION,ECCENTRICITY,INCLINATION,RA_OF_ASC_NODE,ARG_OF_PERICENTER,MEAN_ANOMALY,BSTAR,MEAN_MOTION_DOT,MEAN_MOTION_DDOT,TLE_LINE0,TLE_LINE1,TLE_LINE2,SEMIMAJOR_AXIS,PERIOD,APOGEE,PERIGEE,DECAYED
53601.0,STARLINK-4675,PAYLOAD,2022-09-20 22:00:01,15.55889837,0.0001053,53.2175,170.7306,101.0136,287.3274,-0.017534,-0.01118386,0.0,0 STARLINK-4675,1 53601U 22104P   22263.91668981 -.01118386  00000-0 -17534-1 0  9998,2 53601  53.2175 170.7306 0001053 101.0136 287.3274 15.55889837  3763,6777.704000000002,92.552,400.283,398.856,0.0
53601.0,STARLINK-4675,PAYLOAD,2022-09-21 22:00:00,15.53504618,0.000138,53.2171,165.9165,121.0675,107.2111,-0.019687,-0.01146801,0.0,0 STARLINK-4675,1 53601U 22104P   22264.91667824 -.01146801  00000-0 -19687-1 0  9998,2 53601  53.2171 165.9165 0001380 121.0675 107.2111 15.53504618  1308,6784.64,92.694,407.441,405.569,0.0
53601.0,STARLINK-4675,PAYLOAD,2022-09-22 14:00:01,15.51872117,0.0001020999999999,53.2173,162.716,105.6779,251.1347,-0.020203,-0.01112442,0.0,0 STARLINK-4675,1 53601U 22104P   22265.58334491 -.01112442  00000-0 -20203-1 0  9993,2 53601  53.2173 162.7160 0001021 105.6779 251.1347 15.51872117  1305,6789.397,92.791,411.955,410.569,0.0
53601.0,STARLINK-4675,PAYLOAD,2022-09-22 22:00:00,15.51048443,0.0001097,53.2173,161.1203,112.9811,306.6451,-0.019721,-0.01059424,0.0,0 STARLINK-4675,1 53601U 22104P   22265.91667824 -.01059424  00000-0 -19721-1 0  9992,2 53601  53.2173 161.1203 0001097 112.9811 306.6451 15.51048443  1306,6791.801,92.84,414.411,412.921,0.0
53601.0,STARLINK-4675,PAYLOAD,2022-09-23 06:00:00,15.50181119,9.39e-05,53.2172,159.526,109.714,11.7656,-0.0073824,-0.00402795,0.0,0 STARLINK-4675,1 53601U 22104P   22266.25001157 -.00402795  00000-0 -73824-2 0  9998,2 53601  53.2172 159.5260 0000939 109.7140  11.7656 15.50181119  4134,6794.334,92.892,416.837,415.561,0.0
53601.0,STARLINK-4675,PAYLOAD,2022-09-23 14:00:01,15.49885511,0.0001250999999999,53.2173,157.9308,112.6059,69.9631,-8.0516e-06,-9.08e-06,0.0,0 STARLINK-4675,1 53601U 22104P   22266.58334491 -.00000908  00000-0 -80516-5 0  9993,2 53601  53.2173 157.9308 0001251 112.6059  69.9631 15.49885511  4188,6795.198,92.91,417.913,416.213,0.0
53601.0,STARLINK-4675,PAYLOAD,2022-09-23 22:00:00,15.49967497,9.67e-05,53.2151,156.3398,103.8418,139.667,-0.001954,-0.00110123,0.0,0 STARLINK-4675,1 53601U 22104P   22266.91667824 -.00110123  00000-0 -19540-2 0  9996,2 53601  53.2151 156.3398 0000967 103.8418 139.6670 15.49967497  4238,6794.958000000001,92.905,417.48,416.166,0.0
53601.0,STARLINK-4675,PAYLOAD,2022-09-24 06:00:00,15.49904327,7.74e-05,53.2146,154.7468,101.9039,202.5691,9.7185e-05,5.072e-05,0.0,0 STARLINK-4675,1 53601U 22104P   22267.25001157  .00005072  00000-0  97185-4 0  9992,2 53601  53.2146 154.7468 0000774 101.9039 202.5691 15.49904327  4287,6795.143,92.909,417.534,416.482,0.0
53601.0,STARLINK-4675,PAYLOAD,2022-09-24 14:00:01,15.49908945,9.23e-05,53.2147,153.1519,118.1613,247.3185,-0.00026638,-0.00015552,0.0,0 STARLINK-4675,1 53601U 22104P   22267.58335648 -.00015552  00000-0 -26638-3 0  9993,2 53601  53.2147 153.1519 0000923 118.1613 247.3185 15.49908945  1307,6795.129,92.909,417.621,416.367,0.0
53601.0,STARLINK-4675,PAYLOAD,2022-09-24 22:00:00,15.49876364,0.0001029,53.215,151.5607,106.0325,320.3267,-0.00028202,-0.00016418,0.0,0 STARLINK-4675,1 53601U 22104P   22267.91667824 -.00016418  00000-0 -28202-3 0  9995,2 53601  53.2150 151.5607 0001029 106.0325 320.3267 15.49876364  1307,6795.224,92.911,417.789,416.39,0.0
53601.0,STARLINK-4675,PAYLOAD,2022-09-25 06:00:00,15.49735972,9.55e-05,53.2162,149.9673,114.0747,13.1894,0.0027388,0.00157322,0.0,0 STARLINK-4675,1 53601U 22104P   22268.25001157  .00157322  00000-0  27388-2 0  9995,2 53601  53.2162 149.9673 0000955 114.0747  13.1894 15.49735972  4448,6795.635,92.919,418.149,416.851,0.0
53601.0,STARLINK-4675,PAYLOAD,2022-09-25 14:00:01,15.49886734,0.0001208,53.2172,148.3722,129.5592,58.4961,-5.3598e-05,-3.492e-05,0.0,0 STARLINK-4675,1 53601U 22104P   22268.58334491 -.00003492  00000-0 -53598-4 0  9995,2 53601  53.2172 148.3722 0001208 129.5592  58.4961 15.49886734  1300,6795.194,92.91,417.88,416.23800000000006,0.0
53601.0,STARLINK-4675,PAYLOAD,2022-09-25 22:00:01,15.49910427,0.0001018,53.215,146.7812,100.6429,148.4914,1.2901e-05,2.82e-06,0.0,0 STARLINK-4675,1 53601U 22104P   22268.91668981  .00000282  00000-0  12901-4 0  9991,2 53601  53.2150 146.7812 0001018 100.6429 148.4914 15.49910427  1301,6795.125,92.909,417.682,416.298,0.0
53601.0,STARLINK-4675,PAYLOAD,2022-09-26 10:00:00,15.49899274,9.76e-05,53.2151,144.3905,109.5225,50.8983,0.00026854,0.00014826,0.0,0 STARLINK-4675,1 53601U 22104P   22269.41667824  .00014826  00000-0  26854-3 0  9992,2 53601  53.2151 144.3905 0000976 109.5225  50.8983 15.49899274  4629,6795.156999999997,92.909,417.686,416.359,0.0
53601.0,STARLINK-4675,PAYLOAD,2022-09-26 14:00:01,15.4989082,0.0001025,53.2149,143.5933,112.2593,258.6303,0.00076786,0.00043379,0.0,0 STARLINK-4675,1 53601U 22104P   22269.58334491  .00043379  00000-0  76786-3 0  9995,2 53601  53.2149 143.5933 0001025 112.2593 258.6303 15.49890820  1307,6795.182,92.91,417.744,416.351,0.0
53601.0,STARLINK-4675,PAYLOAD,2022-09-26 22:00:00,15.5001743,9.69e-05,53.2161,142.0019,104.6955,327.1275,-0.006005,-0.00328875,0.0,0 STARLINK-4675,1 53601U 22104P   22269.91667824 -.00328875  00000-0 -60050-2 0  9996,2 53601  53.2161 142.0019 0000969 104.6955 327.1275 15.50017430  1303,6794.812,92.902,417.336,416.019,0.0
53601.0,STARLINK-4675,PAYLOAD,2022-09-27 06:00:00,15.49978241,9.63e-05,53.2152,140.4089,94.592,38.133,-0.0048517,-0.00267491,0.0,0 STARLINK-4675,1 53601U 22104P   22270.25001157 -.00267491  00000-0 -48517-2 0  9996,2 53601  53.2152 140.4089 0000963  94.5920  38.1330 15.49978241  4752,6794.927,92.905,417.446,416.137,0.0
53601.0,STARLINK-4675,PAYLOAD,2022-09-27 14:00:01,15.49741076,0.0001199999999999,53.2165,138.8128,101.7247,91.9455,-0.0093035,-0.00493944,0.0,0 STARLINK-4675,1 53601U 22104P   22270.58334491 -.00493944  00000-0 -93035-2 0  9991,2 53601  53.2165 138.8128 0001200 101.7247  91.9455 15.49741076  1306,6795.62,92.919,418.3,416.669,0.0
53601.0,STARLINK-4675,PAYLOAD,2022-09-27 22:00:01,15.49445939,0.0001492,53.2171,137.2229,113.7134,140.5578,-0.022524,-0.01151489,0.0,0 STARLINK-4675,1 53601U 22104P   22270.91668981 -.01151489  00000-0 -22524-1 0  9992,2 53601  53.2171 137.2229 0001492 113.7134 140.5578 15.49445939  1305,6796.483,92.936,419.362,417.334,0.0
53601.0,STARLINK-4675,PAYLOAD,2022-09-28 14:00:01,15.47820798,0.0001279,53.2173,134.0408,126.3843,246.618,-0.023298,-0.01110665,0.0,0 STARLINK-4675,1 53601U 22104P   22271.58334491 -.01110665  00000-0 -23298-1 0  9992,2 53601  53.2173 134.0408 0001279 126.3843 246.6180 15.47820798  1306,6801.239000000001,93.034,423.974,422.234,0.0
53601.0,STARLINK-4675,PAYLOAD,2022-09-28 22:00:00,15.47025908,0.000125,53.2169,132.4557,113.808,317.1337,-0.024211,-0.01137878,0.0,0 STARLINK-4675,1 53601U 22104P   22271.91667824 -.01137878  00000-0 -24211-1 0  9999,2 53601  53.2169 132.4557 0001250 113.8080 317.1337 15.47025908  1309,6803.569,93.082,426.284,424.583,0.0
53601.0,STARLINK-4675,PAYLOAD,2022-09-29 14:00:01,15.45431919,0.0001351,53.2166,129.2853,98.2607,85.6704,-0.025948,-0.011526,0.0,0 STARLINK-4675,1 53601U 22104P   22272.58334491 -.01152600  00000-0 -25948-1 0  9992,2 53601  53.2166 129.2853 0001351  98.2607  85.6704 15.45431919  1308,6808.246,93.178,431.031,429.191,0.0
53601.0,STARLINK-4675,PAYLOAD,2022-09-29 20:00:01,15.44810933,0.0001266,53.2172,128.1005,93.4738,41.9087,-0.0258879999999999,-0.01127845,0.0,0 STARLINK-4675,1 53601U 22104P   22272.83335648 -.01127845  00000-0 -25888-1 0  9991,2 53601  53.2172 128.1005 0001266  93.4738  41.9087 15.44810933  5151,6810.071,93.215,432.798,431.074,0.0
53601.0,STARLINK-4675,PAYLOAD,2022-09-29 22:00:00,15.44636095,0.0001433,53.2169,127.7057,114.3654,124.6111,-0.026904,-0.0116195,0.0,0 STARLINK-4675,1 53601U 22104P   22272.91667824 -.01161950  00000-0 -26904-1 0  9999,2 53601  53.2169 127.7057 0001433 114.3654 124.6111 15.44636095  1300,6810.585,93.226,433.426,431.474,0.0
53601.0,STARLINK-4675,PAYLOAD,2022-09-30 14:00:01,15.43025701,0.0001152,53.2168,124.5467,88.6437,257.5413,-0.028222,-0.01154369,0.0,0 STARLINK-4675,1 53601U 22104P   22273.58334491 -.01154369  00000-0 -28222-1 0  9995,2 53601  53.2168 124.5467 0001152  88.6437 257.5413 15.43025701  5264,6815.321999999999,93.323,437.972,436.402,0.0
53601.0,STARLINK-4675,PAYLOAD,2022-09-30 22:00:00,15.42244084,0.0001217,53.2172,122.9729,109.9029,288.4273,-0.029831,-0.01185378,0.0,0 STARLINK-4675,1 53601U 22104P   22273.91667824 -.01185378  00000-0 -29831-1 0  9992,2 53601  53.2172 122.9729 0001217 109.9029 288.4273 15.42244084  1302,6817.625,93.37,440.32,438.66,0.0
53601.0,STARLINK-4675,PAYLOAD,2022-10-01 14:00:01,15.40628075,0.0001294,53.217,119.8254,94.1995,45.5522,-0.030999,-0.01168425,0.0,0 STARLINK-4675,1 53601U 22104P   22274.58334491 -.01168425  00000-0 -30999-1 0  9998,2 53601  53.2170 119.8254 0001294  94.1995  45.5522 15.40628075  1303,6822.391,93.468,445.139,443.374,0.0
53601.0,STARLINK-4675,PAYLOAD,2022-10-01 22:00:00,15.39815556,0.0001348,53.2172,118.2575,103.0443,85.973,-0.031499,-0.01156726,0.0,0 STARLINK-4675,1 53601U 22104P   22274.91667824 -.01156726  00000-0 -31499-1 0  9991,2 53601  53.2172 118.2575 0001348 103.0443  85.9730 15.39815556  5473,6824.791,93.518,447.576,445.736,0.0
53601.0,STARLINK-4675,PAYLOAD,2022-10-02 14:00:01,15.38215059,0.0001248,53.2168,115.1212,100.3384,184.3042,-0.033356,-0.01161428,0.0,0 STARLINK-4675,1 53601U 22104P   22275.58334491 -.01161428  00000-0 -33356-1 0  9995,2 53601  53.2168 115.1212 0001248 100.3384 184.3042 15.38215059  1304,6829.525,93.615,452.242,450.537,0.0
